COSMOS 1933             
1 18958U 88020A   25344.70820985  .00006024  00000+0  30266-3 0  9997
2 18958  82.5138 338.8862 0005586 133.1208 227.0493 15.17081792 36737
SL-3 R/B                
1 19046U 88032B   25344.88492744  .00008018  00000+0  38608-3 0  9999
2 19046  97.5084 323.6181 0026536 179.3890 180.7381 15.18711312 38625
SL-16 R/B               
1 19120U 88039B   25344.77400237  .00000032  00000+0  37769-4 0  9999
2 19120  71.0152 256.5547 0019755 119.6317 240.6779 14.19596673945767
COSMOS 1953             
1 19210U 88050A   25345.00051397  .00009084  00000+0  34167-3 0  9992
2 19210  82.5090 247.3266 0013821  76.8470 283.4310 15.26905619 24243
SL-8 R/B                
1 19257U 88053B   25344.32621236  .00000460  00000+0  15768-3 0  9990
2 19257  74.0479 277.1675 0019036 122.2317 355.3313 14.38856908963743
COSMOS 1975             
1 19573U 88093A   25344.87984487  .00010478  00000+0  40015-3 0  9998
2 19573  82.5203 206.6909 0012766 118.2575 241.9954 15.26426182  5859
SL-14 R/B               
1 19574U 88093B   25344.67756024  .00000909  00000+0  10208-3 0  9990
2 19574  82.5303 125.6024 0020112 336.5292  33.8456 14.85545786987821
SL-16 R/B               
1 19650U 88102B   25344.69255062 -.00000093  00000+0 -22774-4 0  9992
2 19650  70.9996 338.7508 0013054 155.4116 204.7633 14.16136247914298
INTERCOSMOS 24          
1 20261U 89080A   25344.91697114  .00001463  00000+0  42420-3 0  9990
2 20261  82.6043 162.1380 1188828 138.7473 230.9923 12.59434577655625
SL-14 R/B               
1 20262U 89080C   25344.66418066  .00000629  00000+0  18381-3 0  9992
2 20262  82.5931 230.3530 1230689  28.3302 337.9429 12.50411252649026
DELTA 1 R/B             
1 20323U 89089B   25344.84628176  .00000556  00000+0  14605-3 0  9998
2 20323  97.0754 201.3840 0070244  44.1909 316.4871 14.50569871882853
ARIANE 40 R/B           
1 20443U 90005H   25344.93236764  .00000493  00000+0  17052-3 0  9998
2 20443  98.3245  43.1613 0011224 110.6989 249.5404 14.39796542880035
