CCSDS_OMM_VERS = 2.0
CREATION_DATE  = 
ORIGINATOR     = 

OBJECT_NAME    = COSMOS 1933
OBJECT_ID      = 1988-020A
CENTER_NAME    = EARTH
REF_FRAME      = TEME
TIME_SYSTEM    = UTC
MEAN_ELEMENT_THEORY = SGP/SGP4

EPOCH          = 2025-12-10T16:59:49.331040
MEAN_MOTION    = 15.17081792
ECCENTRICITY   = .00055866
INCLINATION    = 82.5138
RA_OF_ASC_NODE = 338.8862
ARG_OF_PERICENTER = 133.1208
MEAN_ANOMALY   = 227.0493

EPHEMERIS_TYPE = 0
CLASSIFICATION_TYPE = U
NORAD_CAT_ID   = 18958
ELEMENT_SET_NO = 999
REV_AT_EPOCH   = 3673
BSTAR          = .30265925E-3
MEAN_MOTION_DOT = .6024E-4
MEAN_MOTION_DDOT = 0

CCSDS_OMM_VERS = 2.0
CREATION_DATE  = 
ORIGINATOR     = 

OBJECT_NAME    = SL-3 R/B
OBJECT_ID      = 1988-032B
CENTER_NAME    = EARTH
REF_FRAME      = TEME
TIME_SYSTEM    = UTC
MEAN_ELEMENT_THEORY = SGP/SGP4

EPOCH          = 2025-12-10T21:14:17.730816
MEAN_MOTION    = 15.18711312
ECCENTRICITY   = .00265369
INCLINATION    = 97.5084
RA_OF_ASC_NODE = 323.6181
ARG_OF_PERICENTER = 179.3890
MEAN_ANOMALY   = 180.7381

EPHEMERIS_TYPE = 0
CLASSIFICATION_TYPE = U
NORAD_CAT_ID   = 19046
ELEMENT_SET_NO = 999
REV_AT_EPOCH   = 3862
BSTAR          = .38608242E-3
MEAN_MOTION_DOT = .8018E-4
MEAN_MOTION_DDOT = 0

CCSDS_OMM_VERS = 2.0
CREATION_DATE  = 
ORIGINATOR     = 

OBJECT_NAME    = SL-16 R/B
OBJECT_ID      = 1988-039B
CENTER_NAME    = EARTH
REF_FRAME      = TEME
TIME_SYSTEM    = UTC
MEAN_ELEMENT_THEORY = SGP/SGP4

EPOCH          = 2025-12-10T18:34:33.804768
MEAN_MOTION    = 14.19596673
ECCENTRICITY   = .00197554
INCLINATION    = 71.0152
RA_OF_ASC_NODE = 256.5547
ARG_OF_PERICENTER = 119.6317
MEAN_ANOMALY   = 240.6779

EPHEMERIS_TYPE = 0
CLASSIFICATION_TYPE = U
NORAD_CAT_ID   = 19120
ELEMENT_SET_NO = 999
REV_AT_EPOCH   = 94576
BSTAR          = .37769379E-4
MEAN_MOTION_DOT = .32E-6
MEAN_MOTION_DDOT = 0

CCSDS_OMM_VERS = 2.0
CREATION_DATE  = 
ORIGINATOR     = 

OBJECT_NAME    = COSMOS 1953
OBJECT_ID      = 1988-050A
CENTER_NAME    = EARTH
REF_FRAME      = TEME
TIME_SYSTEM    = UTC
MEAN_ELEMENT_THEORY = SGP/SGP4

EPOCH          = 2025-12-11T00:00:44.407008
MEAN_MOTION    = 15.26905619
ECCENTRICITY   = .00138212
INCLINATION    = 82.5090
RA_OF_ASC_NODE = 247.3266
ARG_OF_PERICENTER = 76.8470
MEAN_ANOMALY   = 283.4310

EPHEMERIS_TYPE = 0
CLASSIFICATION_TYPE = U
NORAD_CAT_ID   = 19210
ELEMENT_SET_NO = 999
REV_AT_EPOCH   = 2424
BSTAR          = .3416722E-3
MEAN_MOTION_DOT = .9084E-4
MEAN_MOTION_DDOT = 0

CCSDS_OMM_VERS = 2.0
CREATION_DATE  = 
ORIGINATOR     = 

OBJECT_NAME    = SL-8 R/B
OBJECT_ID      = 1988-053B
CENTER_NAME    = EARTH
REF_FRAME      = TEME
TIME_SYSTEM    = UTC
MEAN_ELEMENT_THEORY = SGP/SGP4

EPOCH          = 2025-12-10T07:49:44.747904
MEAN_MOTION    = 14.38856908
ECCENTRICITY   = .0019036
INCLINATION    = 74.0479
RA_OF_ASC_NODE = 277.1675
ARG_OF_PERICENTER = 122.2317
MEAN_ANOMALY   = 355.3313

EPHEMERIS_TYPE = 0
CLASSIFICATION_TYPE = U
NORAD_CAT_ID   = 19257
ELEMENT_SET_NO = 999
REV_AT_EPOCH   = 96374
BSTAR          = .15768E-3
MEAN_MOTION_DOT = .46E-5
MEAN_MOTION_DDOT = 0

CCSDS_OMM_VERS = 2.0
CREATION_DATE  = 
ORIGINATOR     = 

OBJECT_NAME    = COSMOS 1975
OBJECT_ID      = 1988-093A
CENTER_NAME    = EARTH
REF_FRAME      = TEME
TIME_SYSTEM    = UTC
MEAN_ELEMENT_THEORY = SGP/SGP4

EPOCH          = 2025-12-10T21:06:58.596768
MEAN_MOTION    = 15.26426182
ECCENTRICITY   = .0012766
INCLINATION    = 82.5203
RA_OF_ASC_NODE = 206.6909
ARG_OF_PERICENTER = 118.2575
MEAN_ANOMALY   = 241.9954

EPHEMERIS_TYPE = 0
CLASSIFICATION_TYPE = U
NORAD_CAT_ID   = 19573
ELEMENT_SET_NO = 999
REV_AT_EPOCH   = 585
BSTAR          = .40015022E-3
MEAN_MOTION_DOT = .10478E-3
MEAN_MOTION_DDOT = 0

CCSDS_OMM_VERS = 2.0
CREATION_DATE  = 
ORIGINATOR     = 

OBJECT_NAME    = SL-14 R/B
OBJECT_ID      = 1988-093B
CENTER_NAME    = EARTH
REF_FRAME      = TEME
TIME_SYSTEM    = UTC
MEAN_ELEMENT_THEORY = SGP/SGP4

EPOCH          = 2025-12-10T16:15:41.204736
MEAN_MOTION    = 14.85545786
ECCENTRICITY   = .00201122
INCLINATION    = 82.5303
RA_OF_ASC_NODE = 125.6024
ARG_OF_PERICENTER = 336.5292
MEAN_ANOMALY   = 33.8456

EPHEMERIS_TYPE = 0
CLASSIFICATION_TYPE = U
NORAD_CAT_ID   = 19574
ELEMENT_SET_NO = 999
REV_AT_EPOCH   = 98782
BSTAR          = .10208049E-3
MEAN_MOTION_DOT = .909E-5
MEAN_MOTION_DDOT = 0

CCSDS_OMM_VERS = 2.0
CREATION_DATE  = 
ORIGINATOR     = 

OBJECT_NAME    = SL-16 R/B
OBJECT_ID      = 1988-102B
CENTER_NAME    = EARTH
REF_FRAME      = TEME
TIME_SYSTEM    = UTC
MEAN_ELEMENT_THEORY = SGP/SGP4

EPOCH          = 2025-12-10T16:37:16.373568
MEAN_MOTION    = 14.16136247
ECCENTRICITY   = .00130546
INCLINATION    = 70.9996
RA_OF_ASC_NODE = 338.7508
ARG_OF_PERICENTER = 155.4116
MEAN_ANOMALY   = 204.7633

EPHEMERIS_TYPE = 0
CLASSIFICATION_TYPE = U
NORAD_CAT_ID   = 19650
ELEMENT_SET_NO = 999
REV_AT_EPOCH   = 91429
BSTAR          = -.22774389E-4
MEAN_MOTION_DOT = -.93E-6
MEAN_MOTION_DDOT = 0

CCSDS_OMM_VERS = 2.0
CREATION_DATE  = 
ORIGINATOR     = 

OBJECT_NAME    = INTERCOSMOS 24
OBJECT_ID      = 1989-080A
CENTER_NAME    = EARTH
REF_FRAME      = TEME
TIME_SYSTEM    = UTC
MEAN_ELEMENT_THEORY = SGP/SGP4

EPOCH          = 2025-12-10T22:00:26.306496
MEAN_MOTION    = 12.59434577
ECCENTRICITY   = .11888286
INCLINATION    = 82.6043
RA_OF_ASC_NODE = 162.1380
ARG_OF_PERICENTER = 138.7473
MEAN_ANOMALY   = 230.9923

EPHEMERIS_TYPE = 0
CLASSIFICATION_TYPE = U
NORAD_CAT_ID   = 20261
ELEMENT_SET_NO = 999
REV_AT_EPOCH   = 65562
BSTAR          = .42419858E-3
MEAN_MOTION_DOT = .1463E-4
MEAN_MOTION_DDOT = 0

CCSDS_OMM_VERS = 2.0
CREATION_DATE  = 
ORIGINATOR     = 

OBJECT_NAME    = SL-14 R/B
OBJECT_ID      = 1989-080C
CENTER_NAME    = EARTH
REF_FRAME      = TEME
TIME_SYSTEM    = UTC
MEAN_ELEMENT_THEORY = SGP/SGP4

EPOCH          = 2025-12-10T15:56:25.209024
MEAN_MOTION    = 12.50411252
ECCENTRICITY   = .1230689
INCLINATION    = 82.5931
RA_OF_ASC_NODE = 230.3530
ARG_OF_PERICENTER = 28.3302
MEAN_ANOMALY   = 337.9429

EPHEMERIS_TYPE = 0
CLASSIFICATION_TYPE = U
NORAD_CAT_ID   = 20262
ELEMENT_SET_NO = 999
REV_AT_EPOCH   = 64902
BSTAR          = .18381E-3
MEAN_MOTION_DOT = .629E-5
MEAN_MOTION_DDOT = 0

CCSDS_OMM_VERS = 2.0
CREATION_DATE  = 
ORIGINATOR     = 

OBJECT_NAME    = DELTA 1 R/B
OBJECT_ID      = 1989-089B
CENTER_NAME    = EARTH
REF_FRAME      = TEME
TIME_SYSTEM    = UTC
MEAN_ELEMENT_THEORY = SGP/SGP4

EPOCH          = 2025-12-10T20:18:38.744064
MEAN_MOTION    = 14.50569871
ECCENTRICITY   = .00702443
INCLINATION    = 97.0754
RA_OF_ASC_NODE = 201.3840
ARG_OF_PERICENTER = 44.1909
MEAN_ANOMALY   = 316.4871

EPHEMERIS_TYPE = 0
CLASSIFICATION_TYPE = U
NORAD_CAT_ID   = 20323
ELEMENT_SET_NO = 999
REV_AT_EPOCH   = 88285
BSTAR          = .14604999E-3
MEAN_MOTION_DOT = .556E-5
MEAN_MOTION_DDOT = 0

CCSDS_OMM_VERS = 2.0
CREATION_DATE  = 
ORIGINATOR     = 

OBJECT_NAME    = ARIANE 40 R/B
OBJECT_ID      = 1990-005H
CENTER_NAME    = EARTH
REF_FRAME      = TEME
TIME_SYSTEM    = UTC
MEAN_ELEMENT_THEORY = SGP/SGP4

EPOCH          = 2025-12-10T22:22:36.564096
MEAN_MOTION    = 14.39796542
ECCENTRICITY   = .00112248
INCLINATION    = 98.3245
RA_OF_ASC_NODE = 43.1613
ARG_OF_PERICENTER = 110.6989
MEAN_ANOMALY   = 249.5404

EPHEMERIS_TYPE = 0
CLASSIFICATION_TYPE = U
NORAD_CAT_ID   = 20443
ELEMENT_SET_NO = 999
REV_AT_EPOCH   = 88003
BSTAR          = .17052351E-3
MEAN_MOTION_DOT = .493E-5
MEAN_MOTION_DDOT = 0

